satname,norad_id,inclination_deg,eccentricity,mean_motion_rev_per_day,perigee_km,apogee_km,l1,l2
STARLINK-1008,44714,53.1521,0.000211,15.50487193,413.86919416286946,416.7360256782558,1 44714U 19074B   26171.40542176  .00056365  00000+0  97291-3 0  9992,2 44714  53.1521  53.3154 0002110 147.6682 212.4457 15.50487193364717
STARLINK-1012,44718,53.1559,0.0002091,15.50775749,413.03953902159174,415.8802030330544,1 44718U 19074F   26171.27217530  .00052054  00000+0  89045-3 0  9993,2 44718  53.1559  54.2188 0002091 158.1531 201.9568 15.50775749364686
STARLINK-1017,44723,53.0489,0.0004481,15.3235503,465.7199733475718,471.85618760469424,1 44723U 19074L   26170.94470782  .00035099  00000+0  11142-2 0  9994,2 44723  53.0489  56.5647 0004481  82.0971 278.0538 15.32355030364607
STARLINK-1020,44725,53.1573,0.0004212,15.56174341,395.8866908569571,401.5955329784356,1 44725U 19074N   26170.93090588  .00067129  00000+0  94055-3 0  9991,2 44725  53.1573  79.4464 0004212 120.9189 239.2238 15.56174341364280
STARLINK-1036,44741,53.0425,0.0002418,15.70495744,355.85051738245875,359.10786137164087,1 44741U 19074AE  26171.07759451  .00051669  00000+0  41486-3 0  9998,2 44741  53.0425  46.3815 0002418  41.8627 318.2574 15.70495744364752
STARLINK-1039,44744,53.0613,0.0004237,15.29393464,474.7195127164032,480.5290848409895,1 44744U 19074AH  26170.53972967  .00032472  00000+0  11312-2 0  9995,2 44744  53.0613 104.1020 0004237  82.6382 277.5098 15.29393464363901
STARLINK-1042,44747,53.0434,0.0001967,15.54752173,401.5393028724384,404.20695225662257,1 44747U 19074AL  26171.40500513  .00019063  00000+0  28826-3 0  9999,2 44747  53.0434 320.0717 0001967 123.4664 236.6534 15.54752173366022
STARLINK-1043,44748,53.0487,6.54e-05,15.63425799,377.32810062601766,378.21177325336885,1 44748U 19074AM  26171.10227570  .00035143  00000+0  37794-3 0  9997,2 44748  53.0487  57.1422 0000654 116.1895 243.9186 15.63425799364617
STARLINK-1046,44751,53.0463,0.0006507,15.56492697,393.4078982104011,402.22612476094855,1 44751U 19074AQ  26171.45077638  .00085274  00000+0  11756-2 0  9996,2 44751  53.0463  77.7043 0006507 103.1164 257.0573 15.56492697364350
STARLINK-1047,44752,53.0698,0.0003317,15.34755357,459.3784916780087,463.91600454820673,1 44752U 19074AR  26171.32677609  .00007827  00000+0  23986-3 0  9994,2 44752  53.0698  25.7088 0003317 142.9753 217.1478 15.34755357365098
STARLINK-1048,44753,53.044,0.0005603,15.68555402,359.255717049562,366.80987192126213,1 44753U 19074AS  26170.89439504  .00075842  00000+0  65505-3 0  9991,2 44753  53.0440  29.4663 0005603  87.6789 272.4868 15.68555402364977
STARLINK-1063,44768,53.1542,0.0002342,15.50378245,414.0297666342576,417.21196281809534,1 44768U 19074BH  26171.41861941  .00044531  00000+0  77441-3 0  9993,2 44768  53.1542  94.2876 0002342 113.5642 246.5614 15.50378245364157
STARLINK-1067,44771,53.0428,0.0001717,15.78836771,332.58289138513464,334.8877483397764,1 44771U 19074BL  26170.93828159  .00084786  00000+0  47044-3 0  9999,2 44771  53.0428  60.1762 0001717 186.7883 173.3114 15.78836771364552
STARLINK-1068,44772,53.0405,0.0001935,15.77185156,337.12059267942277,339.719900333821,1 44772U 19074BM  26171.40233340  .00077640  00000+0  46450-3 0  9996,2 44772  53.0405  31.6904 0001935 211.1982 148.8923 15.77185156364989
STARLINK-1114,44927,53.0393,0.0004887,15.66282835,366.25426748715927,372.84945858188894,1 44927U 20001P   26171.43866279  .00079079  00000+0  74855-3 0  9994,2 44927  53.0393 189.5193 0004887  38.5019 321.6343 15.66282835356125
STARLINK-1123,44930,53.1422,0.0007984,15.59985129,382.2982342698333,393.1019229169324,1 44930U 20001S   26171.40362014  .00065935  00000+0  80017-3 0  9996,2 44930  53.1422 217.4410 0007984 354.4838   5.6086 15.59985129355744
STARLINK-1094,44941,53.1514,0.0007843,15.55650132,394.9471346212613,405.5797335421621,1 44941U 20001AD  26171.45953267  .00053214  00000+0  76225-3 0  9992,2 44941  53.1514 192.5717 0007843  17.0780 343.0494 15.55650132356105
STARLINK-1122,44949,53.1536,0.0007383,15.5592202,394.4698446336506,404.47766467397287,1 44949U 20001AM  26171.34120222  .00062195  00000+0  87999-3 0  9993,2 44949  53.1536 193.7439 0007383  14.7045 345.4180 15.55922020356070
STARLINK-1080,44961,53.0442,0.000315,15.6881453,360.1672269438923,364.41369624469735,1 44961U 20001AZ  26171.36313249  .00048333  00000+0  41643-3 0  9996,2 44961  53.0442 150.0468 0003150  62.4199 297.7137 15.68814530356672
STARLINK-1090,44968,53.148,0.0005952,15.51967295,406.9417970264585,415.0235650947925,1 44968U 20001BG  26171.42326161  .00049043  00000+0  80439-3 0  9992,2 44968  53.1480 181.4132 0005952  22.6758 337.4514 15.51967295356253
STARLINK-1132,45044,53.1505,0.0004124,15.57281584,392.73498546119845,398.32190472031016,1 45044U 20006A   26170.58616242  .00062916  00000+0  84690-3 0  9998,2 45044  53.1505 126.0296 0004124  68.6823 291.4630 15.57281584352739
STARLINK-1131,45047,53.1549,0.0005985,15.53881785,401.34514156743444,409.4650414509697,1 45047U 20006D   26171.33355663  .00057732  00000+0  88153-3 0  9990,2 45047  53.1549 155.5634 0005985  40.0903 320.0549 15.53881785352386
STARLINK-1134,45048,53.0233,0.0009368,15.6103137,378.341251810396,391.012059475609,1 45048U 20006E   26171.45344375  .00084523  00000+0  98089-3 0  9999,2 45048  53.0233 104.0375 0009368 111.6900 248.5110 15.61031370353091
STARLINK-1156,45054,53.1571,0.0005123,15.3601246,454.41275297819357,461.41697171635406,1 45054U 20006L   26171.36195442  .00035223  00000+0  99598-3 0  9994,2 45054  53.1571 162.6125 0005123  32.0933 328.0381 15.36012460352289
STARLINK-1166,45060,53.0437,0.0005665,15.61522354,379.4286453291297,387.0893069701069,1 45060U 20006S   26171.38883088  .00080529  00000+0  91892-3 0  9991,2 45060  53.0437 137.3333 0005665  53.7636 306.3900 15.61522354352627
STARLINK-1169,45061,53.1543,0.0006113,15.39480625,443.4714969377719,451.81669690686977,1 45061U 20006T   26171.23854589  .00041016  00000+0  10341-2 0  9997,2 45061  53.1543 161.4698 0006113  11.6348 348.4797 15.39480625352294
STARLINK-1171,45062,53.0385,0.0002733,15.76172409,339.46060225923793,343.13344489652536,1 45062U 20006U   26170.96746590  .00074346  00000+0  46541-3 0  9993,2 45062  53.0385 103.9710 0002733  62.3561 297.7735 15.76172409353050
STARLINK-1133,45064,53.1566,0.0005465,15.3596143,454.3302880895599,461.8022582671447,1 45064U 20006W   26171.20330211  .00022042  00000+0  62939-3 0  9997,2 45064  53.1566 140.1404 0005465  49.8571 310.2910 15.35961430352592
STARLINK-1167,45071,53.1564,0.0004,15.38557459,447.6428251310008,453.10563411469775,1 45071U 20006AD  26171.18577652  .00039329  00000+0  10228-2 0  9993,2 45071  53.1564 139.0662 0004000  18.8951 341.2201 15.38557459352607
STARLINK-1168,45072,53.1572,0.0005015,15.3632188,453.56914379507816,460.42478316044617,1 45072U 20006AE  26171.31140884  .00040725  00000+0  11377-2 0  9990,2 45072  53.1572 139.8110 0005015  39.1877 320.9489 15.36321880352600
STARLINK-1172,45074,53.1532,0.0005005,15.39517459,444.11897324425354,450.95147113866824,1 45074U 20006AG  26171.33020300  .00043765  00000+0  11012-2 0  9997,2 45074  53.1532 137.6321 0005005  23.2638 336.8592 15.39517459352632
STARLINK-1153,45080,53.157,0.0005715,15.38624477,446.27356063276784,454.0783223248782,1 45080U 20006AN  26171.23322994  .00041798  00000+0  10834-2 0  9992,2 45080  53.1570 138.7511 0005715  10.0414 350.0704 15.38624477352617
STARLINK-1151,45081,53.0467,0.0002126,15.90410071,299.7144786127892,302.55450485107303,1 45081U 20006AP  26171.50003471  .00145897  18872-4  47657-3 0  9999,2 45081  53.0467  88.6799 0002126 196.6148  59.5733 15.90410071  6037
STARLINK-1185,45087,53.1588,0.0005647,15.47322944,420.7196178535469,428.4025850893486,1 45087U 20006AV  26171.17609240  .00049734  00000+0  96035-3 0  9990,2 45087  53.1588 118.3840 0005647  58.3204 301.8355 15.47322944352898
STARLINK-1183,45088,53.1554,0.0005339,15.3589586,454.6108850655128,461.9107906767913,1 45088U 20006AW  26171.29310477  .00023726  00000+0  67793-3 0  9997,2 45088  53.1554 124.5339 0005339  63.4186 296.7364 15.35895860352811
STARLINK-1152,45096,53.0323,0.0003892,15.50364355,413.0172959977226,418.30558870524965,1 45096U 20006BE  26170.96954429  .00055901  00000+0  96897-3 0  9997,2 45096  53.0323  79.6123 0003892 122.5492 237.5892 15.50364355353393
STARLINK-1184,45098,53.0525,0.0005282,15.14839623,517.8211238048898,525.1098638793846,1 45098U 20006BG  26171.21231812  .00019234  00000+0  10359-2 0  9999,2 45098  53.0525 140.7088 0005282  68.3929 291.7626 15.14839623352555
STARLINK-1193,45100,53.0467,0.0004409,15.69143953,358.37560866327203,364.3184856960761,1 45100U 20006BJ  26171.19716889  .00052489  00000+0  44543-3 0  9994,2 45100  53.0467  88.6611 0004409  28.9417 331.1843 15.69143953353285
STARLINK-1143,45179,53.0308,0.000888,15.94356389,284.1869415699348,296.0297452998748,1 45179U 20012B   26171.50003471  .00241832  33712-4  63463-3 0  9993,2 45179  53.0308 176.0525 0008880  32.4605  99.0012 15.94356389  6018
STARLINK-1202,45183,53.1553,0.0002393,15.35769959,456.99842106802134,460.2704998890076,1 45183U 20012F   26170.58911953  .00042924  00000+0  12199-2 0  9997,2 45183  53.1553 284.6046 0002393 300.3366  59.7400 15.35769959350577
STARLINK-1216,45185,53.1554,0.0002548,15.36170604,455.7039809345715,459.1873938720728,1 45185U 20012H   26171.34646620  .00035397  00000+0  99601-3 0  9990,2 45185  53.1554 280.8842 0002548 297.8290  62.2455 15.36170604350630
STARLINK-1225,45187,53.1563,0.0002781,15.36209372,455.4297408599732,459.2316279860497,1 45187U 20012K   26171.34495683  .00045123  00000+0  12635-2 0  9992,2 45187  53.1563 281.3533 0002781 305.5680  54.5064 15.36209372350673
STARLINK-1230,45189,53.1545,0.000262,15.35983165,456.2107139939699,459.79285071592403,1 45189U 20012M   26170.64157267  .00040853  00000+0  11540-2 0  9998,2 45189  53.1545 284.7330 0002620 299.4335  60.6406 15.35983165347792
